SWARM A                 
1 39452U 13067B   26159.12153366  .00011199  00000+0  19384-3 0  9998
2 39452  87.3326  59.6084 0002999  91.6339 268.5265 15.50772509704844
SWARM C                 
1 39453U 13067C   26159.12142069  .00011355  00000+0  19653-3 0  9990
2 39453  87.3326  58.1897 0002963  91.7062 268.4539 15.50775100704805
BRITE-CA1 (TORONTO)     
1 40020U 14033L   26158.93320209  .00000797  00000+0  12746-3 0  9992
2 40020  97.9728 288.0323 0077480 307.1538  52.2610 14.72664620640856
OCO 2                   
1 40059U 14035A   26159.09107696  .00000480  00000+0  11652-3 0  9991
2 40059  98.2015 100.5229 0001480  87.5333 272.6035 14.57104172634725
BRITE-PL2 (HEWELIUSZ)   
1 40119U 14049B   26158.79938014  .00002922  00000+0  27515-3 0  9993
2 40119  97.9088 270.7280 0015142 136.5124 223.7293 14.94563277640049
MMS 1                   
1 40482U 15011A   26159.16672454 -.00000099  00000+0  00000+0 0  9991
2 40482  72.1905 348.8938 8339267 167.2172  98.8804  0.28330218  1387
MMS 2                   
1 40483U 15011B   26159.16672454 -.00000099  00000+0  00000+0 0  9992
2 40483  72.1907 348.8960 8340047 167.2229  98.8688  0.28330224  1383
MMS 3                   
1 40484U 15011C   26159.16672454 -.00000099  00000+0  00000+0 0  9993
2 40484  72.1943 348.9002 8339717 167.2147  98.8695  0.28331998  1380
MMS 4                   
1 40485U 15011D   26159.16672454 -.00000099  00000+0  00000+0 0  9994
2 40485  72.1905 348.8960 8339319 167.2224  98.8578  0.28331988  1384
ASTROSAT                
1 40930U 15052A   26159.14404602  .00001763  00000+0  13268-3 0  9992
2 40930   5.9951 220.4565 0008548 266.7551  93.1599 14.82493448578483
DAMPE                   
1 41173U 15078A   26159.08218385  .00001118  00000+0  40156-4 0  9995
2 41173  97.4563 164.5048 0013665 104.9952 255.2802 15.30761079583156
PISAT                   
1 41784U 16059B   26158.94835705  .00001040  00000+0  18468-3 0  9992
2 41784  97.8178 159.7983 0027747 233.3279 126.5376 14.68968197518388
HXMT (HUIYAN)           
1 42758U 17034A   26159.18828787  .00005285  00000+0  26076-3 0  9996
2 42758  43.0130 233.1483 0030185  87.7305 272.7000 15.18415226496293
FLYING LAPTOP           
1 42831U 17042G   26159.18656231  .00003173  00000+0  25162-3 0  9999
2 42831  97.4657 315.0688 0019124 151.1196 209.1091 15.01085919485109
ZHANGHENG 1-01 (CSES-1) 
1 43194U 18015C   26159.19038812  .00007844  00000+0  35871-3 0  9990
2 43194  97.6868 324.6710 0017183 300.2686  59.6847 15.20699274463271
SALSAT                  
1 46495U 20068K   26158.98778249  .00008175  00000+0  28698-3 0  9996
2 46495  97.8853 161.4934 0008912 345.1768  14.9208 15.29667638313950
IXPE                    
1 49954U 21121A   26159.16672454  .00018784  00000+0  10586-2 0  9995
2 49954   0.2318  25.3111 0007276 300.0641 156.5449 15.10172218  5878
SMILE                   
1 69123U 26109A   26144.65318427 -.00001976  00000+0 -42379-3 0  9994
2 69123  70.0007 229.2745 0009123 259.5159 100.4951 14.57062785   802
