OBJECT_NAME,OBJECT_ID,EPOCH,MEAN_MOTION,ECCENTRICITY,INCLINATION,RA_OF_ASC_NODE,ARG_OF_PERICENTER,MEAN_ANOMALY,EPHEMERIS_TYPE,CLASSIFICATION_TYPE,NORAD_CAT_ID,ELEMENT_SET_NO,REV_AT_EPOCH,BSTAR,MEAN_MOTION_DOT,MEAN_MOTION_DDOT
SWARM A,2013-067B,2026-06-08T02:55:00.508224,15.50772509,.0002999,87.3326,59.6084,91.6339,268.5265,0,U,39452,999,70484,.19384E-3,.11199E-3,0
SWARM C,2013-067C,2026-06-08T02:54:50.747616,15.50775100,.0002963,87.3326,58.1897,91.7062,268.4539,0,U,39453,999,70480,.19653E-3,.11355E-3,0
BRITE-CA1 (TORONTO),2014-033L,2026-06-07T22:23:48.660576,14.72664620,.007748,97.9728,288.0323,307.1538,52.2610,0,U,40020,999,64085,.12746E-3,.797E-5,0
OCO 2,2014-035A,2026-06-08T02:11:09.049344,14.57104172,.000148,98.2015,100.5229,87.5333,272.6035,0,U,40059,999,63472,.11652E-3,.48E-5,0
BRITE-PL2 (HEWELIUSZ),2014-049B,2026-06-07T19:11:06.444096,14.94563277,.0015142,97.9088,270.7280,136.5124,223.7293,0,U,40119,999,64004,.27515E-3,.2922E-4,0
MMS 1,2015-011A,2026-06-08T04:00:05.000256,0.28330218,.8339267,72.1905,348.8938,167.2172,98.8804,0,U,40482,999,138,0,-.99E-6,0
MMS 2,2015-011B,2026-06-08T04:00:05.000256,0.28330224,.8340047,72.1907,348.8960,167.2229,98.8688,0,U,40483,999,138,0,-.99E-6,0
MMS 3,2015-011C,2026-06-08T04:00:05.000256,0.28331998,.8339717,72.1943,348.9002,167.2147,98.8695,0,U,40484,999,138,0,-.99E-6,0
MMS 4,2015-011D,2026-06-08T04:00:05.000256,0.28331988,.8339319,72.1905,348.8960,167.2224,98.8578,0,U,40485,999,138,0,-.99E-6,0
ASTROSAT,2015-052A,2026-06-08T03:27:25.576128,14.82493448,.0008548,5.9951,220.4565,266.7551,93.1599,0,U,40930,999,57848,.13268E-3,.1763E-4,0
DAMPE,2015-078A,2026-06-08T01:58:20.684640,15.30761079,.0013665,97.4563,164.5048,104.9952,255.2802,0,U,41173,999,58315,.40156E-4,.1118E-4,0
PISAT,2016-059B,2026-06-07T22:45:38.049120,14.68968197,.0027747,97.8178,159.7983,233.3279,126.5376,0,U,41784,999,51838,.18468E-3,.104E-4,0
HXMT (HUIYAN),2017-034A,2026-06-08T04:31:08.071968,15.18415226,.0030185,43.0130,233.1483,87.7305,272.7000,0,U,42758,999,49629,.26076E-3,.5285E-4,0
FLYING LAPTOP,2017-042G,2026-06-08T04:28:38.983584,15.01085919,.0019124,97.4657,315.0688,151.1196,209.1091,0,U,42831,999,48510,.25162E-3,.3173E-4,0
ZHANGHENG 1-01 (CSES-1),2018-015C,2026-06-08T04:34:09.533568,15.20699274,.0017183,97.6868,324.6710,300.2686,59.6847,0,U,43194,999,46327,.35871E-3,.7844E-4,0
SALSAT,2020-068K,2026-06-07T23:42:24.407136,15.29667638,.0008912,97.8853,161.4934,345.1768,14.9208,0,U,46495,999,31395,.28698E-3,.8175E-4,0
IXPE,2021-121A,2026-06-08T04:00:05.000256,15.10172218,.0007276,0.2318,25.3111,300.0641,156.5449,0,U,49954,999,587,.10586E-2,.18784E-3,0
SMILE,2026-109A,2026-05-24T15:40:35.120928,14.57062785,.00091232,70.0007,229.2745,259.5159,100.4951,0,U,69123,999,80,-.42378883E-3,-.1976E-4,0
